OSCAR 7 (AO-7)          
1 07530U 74089B   20337.21064569 -.00000053  00000-0 -46797-4 0  9998
2 07530 101.8261 306.1566 0012493  41.6986 329.8345 12.53646302107011
UOSAT 2 (UO-11)         
1 14781U 84021B   20337.27398001  .00000276  00000-0  39836-4 0  9999
2 14781  97.5895 340.8946 0008854  19.6227 340.5326 14.83219144956709
LUSAT (LO-19)           
1 20442U 90005G   20337.58208493  .00000022  00000-0  24508-4 0  9997
2 20442  98.7145 285.5600 0012248  25.0228 335.1546 14.32968881612635
EYESAT A (AO-27)        
1 22825U 93061C   20337.28896566  .00000011  00000-0  22307-4 0  9993
2 22825  98.9249 343.9867 0007483 245.8850 114.1549 14.30099445417800
ITAMSAT (IO-26)         
1 22826U 93061D   20337.30591560  .00000014  00000-0  23401-4 0  9992
2 22826  98.9190 343.9325 0008127 232.5228 127.5215 14.30436581418044
RADIO ROSTO (RS-15)     
1 23439U 94085A   20337.63355670 -.00000037  00000-0  15882-3 0  9995
2 23439  64.8185 334.2731 0154082  10.7129 349.7016 11.27569419 68142
JAS-2 (FO-29)           
1 24278U 96046B   20337.53708966  .00000014  00000-0  54028-4 0  9995
2 24278  98.5886  65.4154 0349366 299.7499  56.9307 13.53100786199614
TECHSAT 1B (GO-32)      
1 25397U 98043D   20337.55429041  .00000013  00000-0  25157-4 0  9993
2 25397  98.7476 277.9013 0000572 350.6340   9.4828 14.23696084163478
ISS (ZARYA)             
1 25544U 98067A   20337.65450419  .00004848  00000-0  95643-4 0  9994
2 25544  51.6459 234.8864 0001896 104.2832 339.4771 15.49139020258138
PCSAT (NO-44)           
1 26931U 01043C   20337.51783278 -.00000002  00000-0  31166-4 0  9999
2 26931  67.0525  68.6793 0007159 274.4698  85.5585 14.30597166  1086
SAUDISAT 1C (SO-50)     
1 27607U 02058C   20337.16628765  .00000165  00000-0  44244-4 0  9997
2 27607  64.5552 221.5944 0030554 112.7348 247.6989 14.75685889965467
CUTE-1 (CO-55)          
1 27844U 03031E   20337.28879515  .00000096  00000-0  63079-4 0  9996
2 27844  98.6819 342.4925 0008889 292.1113  67.9120 14.22272473903954
CUBESAT XI-IV (CO-57)   
1 27848U 03031J   20337.29405026  .00000078  00000-0  55129-4 0  9990
2 27848  98.6881 343.0650 0008880 306.2376  53.7980 14.21854758903798
MOZHAYETS 4 (RS-22)     
1 27939U 03042A   20337.59823382  .00000323  00000-0  66347-4 0  9992
2 27939  98.1137 110.4320 0013172 176.4732 183.6564 14.66915588918662
CUBESAT XI-V            
1 28895U 05043F   20337.09199559  .00000337  00000-0  73449-4 0  9990
2 28895  98.0331 108.9968 0018011 111.2673 249.0455 14.63834090805135
CUTE-1.7+APD II (CO-65) 
1 32785U 08021C   20337.18670131  .00000653  00000-0  75766-4 0  9997
2 32785  97.5899 317.9802 0011697 300.9672  59.0396 14.88573397682828
DELFI-C3 (DO-64)        
1 32789U 08021G   20337.35360987  .00002732  00000-0  18019-3 0  9992
2 32789  97.3994  14.1529 0013628  99.5326 260.7443 15.08208492687116
SEEDS II (CO-66)        
1 32791U 08021J   20337.23152484  .00000868  00000-0  92654-4 0  9999
2 32791  97.5537 324.0961 0011692 263.0838  96.9051 14.91193448683386
YUBILEINY (RS-30)       
1 32953U 08025A   20337.36585376  .00000028  00000-0  12906-3 0  9996
2 32953  82.5024 173.5008 0019865  47.8181 312.4584 12.43098961568499
KKS-1 (KISEKI)          
1 33499U 09002H   20337.35226768  .00000269  00000-0  47381-4 0  9997
2 33499  98.2928 196.5923 0008215 316.0684  43.9870 14.75587765637346
SWISSCUBE               
1 35932U 09051B   20337.26070028  .00000270  00000-0  71739-4 0  9997
2 35932  98.6077 164.9713 0007183 340.4547  19.6373 14.56456565594259
BEESAT-1                
1 35933U 09051C   20337.09737903  .00000241  00000-0  65162-4 0  9992
2 35933  98.6058 166.6651 0005656 357.2608   2.8557 14.56524292594303
ITUPSAT1                
1 35935U 09051E   20337.25947472  .00000200  00000-0  57075-4 0  9995
2 35935  98.6163 167.0069 0007925 353.5616   6.5477 14.55664047594088
XIWANG-1 (HOPE-1)       
1 36122U 09072B   20337.45088706 -.00000028  00000-0  37047-4 0  9991
2 36122 100.1093 320.4965 0007308 191.5139 168.5809 13.16357772526974
JUGNU                   
1 37839U 11058B   20337.38489045  .00000332  00000-0  35283-4 0  9994
2 37839  19.9628 344.3506 0019164  79.8561 309.1392 14.12696845472566
SRMSAT                  
1 37841U 11058D   20337.56231926  .00000314  00000-0  27278-4 0  9995
2 37841  19.9731  51.0755 0011752 291.5054  96.3930 14.10679400471903
M-CUBED & EXP-1 PRIME   
1 37855U 11061F   20337.20593990  .00003186  00000-0  16195-3 0  9992
2 37855 101.7263 152.3005 0169280 296.9364  61.4642 15.06821666496464
STRAND-1                
1 39090U 13009E   20337.31275583  .00000070  00000-0  39537-4 0  9991
2 39090  98.4392 177.9866 0009811 139.9924 220.1986 14.35156830406765
SOMP                    
1 39134U 13015E   20337.60238648  .00005304  00000-0  24163-3 0  9993
2 39134  64.8648  92.1692 0017493 220.8496 139.1322 15.21635822421252
BEESAT-3                
1 39135U 13015F   20337.19900057  .00004032  00000-0  20218-3 0  9992
2 39135  64.8677 119.5250 0022256 213.3748 146.5977 15.18629724420683
BEESAT-2                
1 39136U 13015G   20337.18169657  .00003494  00000-0  17836-3 0  9998
2 39136  64.8768 125.1801 0033032 264.5466  95.1892 15.18024371420579
ZACUBE-1 (TSHEPISOSAT)  
1 39417U 13066B   20337.22449751  .00000624  00000-0  83795-4 0  9997
2 39417  97.5758 326.0122 0060239  87.8174 272.9935 14.81368047379871
GOMX-1                  
1 39430U 13066Q   20337.57349500  .00000691  00000-0  13326-3 0  9997
2 39430  97.8038 266.0400 0151453  15.4718 345.1038 14.59487157374323
CUBEBUG-2 (LO-74)       
1 39440U 13066AA  20337.20135010  .00000461  00000-0  70373-4 0  9998
2 39440  97.6512 310.6122 0080547 154.6900 205.8291 14.76104886377320
FUNCUBE-1 (AO-73)       
1 39444U 13066AE  20337.25980284  .00000709  00000-0  92417-4 0  9996
2 39444  97.5683 328.3559 0059324  79.3244 281.4643 14.82243924378220
UWE-3                   
1 39446U 13066AG  20337.17359522  .00000496  00000-0  71682-4 0  9998
2 39446  97.6151 317.6946 0071062 122.0320 238.7821 14.78637727377357
SPROUT                  
1 39770U 14029E   20337.54579564  .00002090  00000-0  23347-3 0  9995
2 39770  97.9064  83.2256 0009809 130.3511 229.8575 14.88027135354053
UNISAT-6                
1 40012U 14033C   20337.33224293  .00000434  00000-0  71335-4 0  9995
2 40012  97.6897 183.9158 0058195 176.4077 183.7562 14.74197928347154
DUCHIFAT-1              
1 40021U 14033M   20337.05811717  .00001172  00000-0  12405-3 0  9999
2 40021  97.9549 269.4097 0014216  93.9808 266.3035 14.91076189350863
QB50P1                  
1 40025U 14033R   20337.03155358  .00000825  00000-0  92971-4 0  9994
2 40025  97.9218 261.3519 0013734 105.9554 254.3177 14.89258561350032
NUDT-PHONESAT           
1 40900U 15049B   20337.50383819  .00006590  00000-0  26664-3 0  9991
2 40900  97.4266 347.0520 0013996 110.3171  42.4850 15.24955085288793
ZDPS 2A                 
1 40901U 15049C   20337.52208737  .00003386  00000-0  16589-3 0  9994
2 40901  97.4628 341.0663 0014103 141.9248  12.3628 15.18747417288075
ZDPS 2B                 
1 40902U 15049D   20337.50378889  .00003426  00000-0  16778-3 0  9994
2 40902  97.4636 338.3242 0014183 139.4024  12.0540 15.18753396288049
XW-2A                   
1 40903U 15049E   20337.49438708  .00006199  00000-0  13798-3 0  9999
2 40903  97.2667  26.4205 0013323  20.0971  93.4538 15.43905439292395
KAITUO 1A               
1 40904U 15049F   20337.53379433  .00001524  00000-0  82860-4 0  9998
2 40904  97.4814 336.0970 0015006 154.3896 319.9191 15.15894567287706
2015-049G               
1 40905U 15049G   20337.54910488  .00001143  00000-0  65119-4 0  9996
2 40905  97.4917 333.2468 0016104 153.1296 323.0497 15.14724433287521
XW-2C                   
1 40906U 15049H   20337.54465672  .00001992  00000-0  10594-3 0  9995
2 40906  97.4813 336.4861 0015407 145.2807 330.4855 15.16327224287725
XW-2D                   
1 40907U 15049J   20337.51147182  .00002006  00000-0  10588-3 0  9996
2 40907  97.4803 336.1922 0014982 142.2998 335.1901 15.16591553287749
LILACSAT-2              
1 40908U 15049K   20337.50820844  .00000855  00000-0  50330-4 0  9999
2 40908  97.4971 334.3110 0016334 155.0037 321.9404 15.14192330287428
XW-2F                   
1 40910U 15049M   20337.52057722  .00002999  00000-0  14893-3 0  9995
2 40910  97.4700 339.0202 0015658 131.0427  25.2280 15.18351630287835
XW-2B                   
1 40911U 15049N   20337.51052462  .00001915  00000-0  10149-3 0  9998
2 40911  97.4803 336.8883 0014822 143.2625  10.8797 15.16513184287630
KAITUO 1B               
1 40912U 15049P   20337.51050503  .00003501  00000-0  16145-3 0  9998
2 40912  97.4470 343.3014 0016218 109.2791  41.6052 15.20798156288251
TIANWANG 1C (TW-1C)     
1 40926U 15051B   20337.43812373  .00126875  00000-0  72644-3 0  9994
2 40926  97.0591  31.1350 0004525 155.2437 333.2301 15.78460167293385
TIANWANG 1A (TW-1A)     
1 40928U 15051D   20337.55916258  .00009190  00000-0  20455-3 0  9999
2 40928  97.0953   1.2690 0008415 299.8913 185.4290 15.43808812291297
LAPAN-A2                
1 40931U 15052B   20337.39270626  .00000729  00000-0  12472-4 0  9998
2 40931   5.9994 217.8161 0013237 134.3457 225.8094 14.76652331280125
E-ST@R-II               
1 41459U 16025D   20337.55279380  .00003147  00000-0  15906-3 0  9990
2 41459  98.1201  96.5134 0163026   6.3363 353.9881 15.07040115252755
AAUSAT 4                
1 41460U 16025E   20337.61986898  .00004805  00000-0  23227-3 0  9995
2 41460  98.1192  99.5515 0151057 352.7892   7.1165 15.09616038253005
NUSAT-1 (FRESCO)        
1 41557U 16033B   20337.54867472  .00004402  00000-0  16088-3 0  9999
2 41557  97.4010  66.6963 0012550 206.9304 278.9130 15.28549330251444
BEESAT-4                
1 41619U 16040W   20337.42141580  .00004005  00000-0  16526-3 0  9994
2 41619  97.2988  32.8268 0009578 313.3121  46.7317 15.24571279234985
